STARLINK-36720          
1 67655U 26022H   26052.13703124  .00183863  00000+0  12025-2 0  9997
2 67655  97.2838  85.3043 0001385  97.6720 262.4702 15.75279811  2943
STARLINK-36688          
1 67656U 26022J   26052.13634221  .00312873  00000+0  20133-2 0  9993
2 67656  97.2841  85.3049 0001437  95.9764 264.1665 15.75296772  2943
STARLINK-36706          
1 67657U 26022K   26052.13491450  .00074807  00000+0  49701-3 0  9994
2 67657  97.2841  85.3060 0001523 100.5511 259.5926 15.75236661  2945
STARLINK-36701          
1 67658U 26022L   26052.13385538  .00138903  00000+0  91410-3 0  9996
2 67658  97.2839  85.3078 0001732 105.1185 255.0272 15.75264642  2947
STARLINK-36642          
1 67659U 26022M   26052.13279829  .00059127  00000+0  39386-3 0  9996
2 67659  97.2838  85.3103 0001656 100.8854 259.2597 15.75229461  2942
STARLINK-36673          
1 67660U 26022N   26052.13138579  .00080166  00000+0  53214-3 0  9997
2 67660  97.2839  85.3109 0001550  87.6794 272.4648 15.75240238  2948
STARLINK-36674          
1 67661U 26022P   26052.12997379  .00152223  00000+0  99986-3 0  9998
2 67661  97.2838  85.3133 0001396  92.1695 267.9731 15.75270722  2947
STARLINK-36700          
1 67662U 26022Q   26052.12785736  .00128487  00000+0  84682-3 0  9993
2 67662  97.2839  85.3159 0001702 102.5485 257.5970 15.75259998  2943
STARLINK-36675          
1 67663U 26022R   26052.12926884  .00155053  00000+0  10182-2 0  9997
2 67663  97.2837  85.3141 0001763 104.8052 255.3409 15.75267445  2944
STARLINK-36404          
1 67664U 26022S   26052.12609337  .00066518  00000+0  44255-3 0  9995
2 67664  97.2840  85.3169 0001685  91.4861 268.6597 15.75232228  2947
STARLINK-36399          
1 67665U 26022T   26052.12538831  .00170174  00000+0  11160-2 0  9998
2 67665  97.2838  85.3185 0000992  93.4298 266.7081 15.75255513  2948
STARLINK-36365          
1 67666U 26022U   26052.12397723  .00152365  00000+0  10009-2 0  9995
2 67666  97.2835  85.3205 0001903  94.4679 265.6803 15.75268065  2942
