CCSDS_OMM_VERS = 2.0
CREATION_DATE  = 
ORIGINATOR     = 

OBJECT_NAME    = STARLINK-36720
OBJECT_ID      = 2026-022H
CENTER_NAME    = EARTH
REF_FRAME      = TEME
TIME_SYSTEM    = UTC
MEAN_ELEMENT_THEORY = SGP/SGP4

EPOCH          = 2026-02-21T03:17:19.499136
MEAN_MOTION    = 15.75279811
ECCENTRICITY   = .0001385
INCLINATION    = 97.2838
RA_OF_ASC_NODE = 85.3043
ARG_OF_PERICENTER = 97.6720
MEAN_ANOMALY   = 262.4702

EPHEMERIS_TYPE = 0
CLASSIFICATION_TYPE = U
NORAD_CAT_ID   = 67655
ELEMENT_SET_NO = 999
REV_AT_EPOCH   = 294
BSTAR          = .12025E-2
MEAN_MOTION_DOT = .183863E-2
MEAN_MOTION_DDOT = 0

CCSDS_OMM_VERS = 2.0
CREATION_DATE  = 
ORIGINATOR     = 

OBJECT_NAME    = STARLINK-36688
OBJECT_ID      = 2026-022J
CENTER_NAME    = EARTH
REF_FRAME      = TEME
TIME_SYSTEM    = UTC
MEAN_ELEMENT_THEORY = SGP/SGP4

EPOCH          = 2026-02-21T03:16:19.966944
MEAN_MOTION    = 15.75296772
ECCENTRICITY   = .0001437
INCLINATION    = 97.2841
RA_OF_ASC_NODE = 85.3049
ARG_OF_PERICENTER = 95.9764
MEAN_ANOMALY   = 264.1665

EPHEMERIS_TYPE = 0
CLASSIFICATION_TYPE = U
NORAD_CAT_ID   = 67656
ELEMENT_SET_NO = 999
REV_AT_EPOCH   = 294
BSTAR          = .20133E-2
MEAN_MOTION_DOT = .312873E-2
MEAN_MOTION_DDOT = 0

CCSDS_OMM_VERS = 2.0
CREATION_DATE  = 
ORIGINATOR     = 

OBJECT_NAME    = STARLINK-36706
OBJECT_ID      = 2026-022K
CENTER_NAME    = EARTH
REF_FRAME      = TEME
TIME_SYSTEM    = UTC
MEAN_ELEMENT_THEORY = SGP/SGP4

EPOCH          = 2026-02-21T03:14:16.612800
MEAN_MOTION    = 15.75236661
ECCENTRICITY   = .0001523
INCLINATION    = 97.2841
RA_OF_ASC_NODE = 85.3060
ARG_OF_PERICENTER = 100.5511
MEAN_ANOMALY   = 259.5926

EPHEMERIS_TYPE = 0
CLASSIFICATION_TYPE = U
NORAD_CAT_ID   = 67657
ELEMENT_SET_NO = 999
REV_AT_EPOCH   = 294
BSTAR          = .49701E-3
MEAN_MOTION_DOT = .74807E-3
MEAN_MOTION_DDOT = 0

CCSDS_OMM_VERS = 2.0
CREATION_DATE  = 
ORIGINATOR     = 

OBJECT_NAME    = STARLINK-36701
OBJECT_ID      = 2026-022L
CENTER_NAME    = EARTH
REF_FRAME      = TEME
TIME_SYSTEM    = UTC
MEAN_ELEMENT_THEORY = SGP/SGP4

EPOCH          = 2026-02-21T03:12:45.104832
MEAN_MOTION    = 15.75264642
ECCENTRICITY   = .0001732
INCLINATION    = 97.2839
RA_OF_ASC_NODE = 85.3078
ARG_OF_PERICENTER = 105.1185
MEAN_ANOMALY   = 255.0272

EPHEMERIS_TYPE = 0
CLASSIFICATION_TYPE = U
NORAD_CAT_ID   = 67658
ELEMENT_SET_NO = 999
REV_AT_EPOCH   = 294
BSTAR          = .9141E-3
MEAN_MOTION_DOT = .138903E-2
MEAN_MOTION_DDOT = 0

CCSDS_OMM_VERS = 2.0
CREATION_DATE  = 
ORIGINATOR     = 

OBJECT_NAME    = STARLINK-36642
OBJECT_ID      = 2026-022M
CENTER_NAME    = EARTH
REF_FRAME      = TEME
TIME_SYSTEM    = UTC
MEAN_ELEMENT_THEORY = SGP/SGP4

EPOCH          = 2026-02-21T03:11:13.772256
MEAN_MOTION    = 15.75229461
ECCENTRICITY   = .0001656
INCLINATION    = 97.2838
RA_OF_ASC_NODE = 85.3103
ARG_OF_PERICENTER = 100.8854
MEAN_ANOMALY   = 259.2597

EPHEMERIS_TYPE = 0
CLASSIFICATION_TYPE = U
NORAD_CAT_ID   = 67659
ELEMENT_SET_NO = 999
REV_AT_EPOCH   = 294
BSTAR          = .39386E-3
MEAN_MOTION_DOT = .59127E-3
MEAN_MOTION_DDOT = 0

CCSDS_OMM_VERS = 2.0
CREATION_DATE  = 
ORIGINATOR     = 

OBJECT_NAME    = STARLINK-36673
OBJECT_ID      = 2026-022N
CENTER_NAME    = EARTH
REF_FRAME      = TEME
TIME_SYSTEM    = UTC
MEAN_ELEMENT_THEORY = SGP/SGP4

EPOCH          = 2026-02-21T03:09:11.732256
MEAN_MOTION    = 15.75240238
ECCENTRICITY   = .000155
INCLINATION    = 97.2839
RA_OF_ASC_NODE = 85.3109
ARG_OF_PERICENTER = 87.6794
MEAN_ANOMALY   = 272.4648

EPHEMERIS_TYPE = 0
CLASSIFICATION_TYPE = U
NORAD_CAT_ID   = 67660
ELEMENT_SET_NO = 999
REV_AT_EPOCH   = 294
BSTAR          = .53214E-3
MEAN_MOTION_DOT = .80166E-3
MEAN_MOTION_DDOT = 0

CCSDS_OMM_VERS = 2.0
CREATION_DATE  = 
ORIGINATOR     = 

OBJECT_NAME    = STARLINK-36674
OBJECT_ID      = 2026-022P
CENTER_NAME    = EARTH
REF_FRAME      = TEME
TIME_SYSTEM    = UTC
MEAN_ELEMENT_THEORY = SGP/SGP4

EPOCH          = 2026-02-21T03:07:09.735456
MEAN_MOTION    = 15.75270722
ECCENTRICITY   = .0001396
INCLINATION    = 97.2838
RA_OF_ASC_NODE = 85.3133
ARG_OF_PERICENTER = 92.1695
MEAN_ANOMALY   = 267.9731

EPHEMERIS_TYPE = 0
CLASSIFICATION_TYPE = U
NORAD_CAT_ID   = 67661
ELEMENT_SET_NO = 999
REV_AT_EPOCH   = 294
BSTAR          = .99986E-3
MEAN_MOTION_DOT = .152223E-2
MEAN_MOTION_DDOT = 0

CCSDS_OMM_VERS = 2.0
CREATION_DATE  = 
ORIGINATOR     = 

OBJECT_NAME    = STARLINK-36700
OBJECT_ID      = 2026-022Q
CENTER_NAME    = EARTH
REF_FRAME      = TEME
TIME_SYSTEM    = UTC
MEAN_ELEMENT_THEORY = SGP/SGP4

EPOCH          = 2026-02-21T03:04:06.875904
MEAN_MOTION    = 15.75259998
ECCENTRICITY   = .0001702
INCLINATION    = 97.2839
RA_OF_ASC_NODE = 85.3159
ARG_OF_PERICENTER = 102.5485
MEAN_ANOMALY   = 257.5970

EPHEMERIS_TYPE = 0
CLASSIFICATION_TYPE = U
NORAD_CAT_ID   = 67662
ELEMENT_SET_NO = 999
REV_AT_EPOCH   = 294
BSTAR          = .84682E-3
MEAN_MOTION_DOT = .128487E-2
MEAN_MOTION_DDOT = 0

CCSDS_OMM_VERS = 2.0
CREATION_DATE  = 
ORIGINATOR     = 

OBJECT_NAME    = STARLINK-36675
OBJECT_ID      = 2026-022R
CENTER_NAME    = EARTH
REF_FRAME      = TEME
TIME_SYSTEM    = UTC
MEAN_ELEMENT_THEORY = SGP/SGP4

EPOCH          = 2026-02-21T03:06:08.827776
MEAN_MOTION    = 15.75267445
ECCENTRICITY   = .0001763
INCLINATION    = 97.2837
RA_OF_ASC_NODE = 85.3141
ARG_OF_PERICENTER = 104.8052
MEAN_ANOMALY   = 255.3409

EPHEMERIS_TYPE = 0
CLASSIFICATION_TYPE = U
NORAD_CAT_ID   = 67663
ELEMENT_SET_NO = 999
REV_AT_EPOCH   = 294
BSTAR          = .10182E-2
MEAN_MOTION_DOT = .155053E-2
MEAN_MOTION_DDOT = 0

CCSDS_OMM_VERS = 2.0
CREATION_DATE  = 
ORIGINATOR     = 

OBJECT_NAME    = STARLINK-36404
OBJECT_ID      = 2026-022S
CENTER_NAME    = EARTH
REF_FRAME      = TEME
TIME_SYSTEM    = UTC
MEAN_ELEMENT_THEORY = SGP/SGP4

EPOCH          = 2026-02-21T03:01:34.467168
MEAN_MOTION    = 15.75232228
ECCENTRICITY   = .0001685
INCLINATION    = 97.2840
RA_OF_ASC_NODE = 85.3169
ARG_OF_PERICENTER = 91.4861
MEAN_ANOMALY   = 268.6597

EPHEMERIS_TYPE = 0
CLASSIFICATION_TYPE = U
NORAD_CAT_ID   = 67664
ELEMENT_SET_NO = 999
REV_AT_EPOCH   = 294
BSTAR          = .44255E-3
MEAN_MOTION_DOT = .66518E-3
MEAN_MOTION_DDOT = 0

CCSDS_OMM_VERS = 2.0
CREATION_DATE  = 
ORIGINATOR     = 

OBJECT_NAME    = STARLINK-36399
OBJECT_ID      = 2026-022T
CENTER_NAME    = EARTH
REF_FRAME      = TEME
TIME_SYSTEM    = UTC
MEAN_ELEMENT_THEORY = SGP/SGP4

EPOCH          = 2026-02-21T03:00:33.549984
MEAN_MOTION    = 15.75255513
ECCENTRICITY   = .0000992
INCLINATION    = 97.2838
RA_OF_ASC_NODE = 85.3185
ARG_OF_PERICENTER = 93.4298
MEAN_ANOMALY   = 266.7081

EPHEMERIS_TYPE = 0
CLASSIFICATION_TYPE = U
NORAD_CAT_ID   = 67665
ELEMENT_SET_NO = 999
REV_AT_EPOCH   = 294
BSTAR          = .1116E-2
MEAN_MOTION_DOT = .170174E-2
MEAN_MOTION_DDOT = 0

CCSDS_OMM_VERS = 2.0
CREATION_DATE  = 
ORIGINATOR     = 

OBJECT_NAME    = STARLINK-36365
OBJECT_ID      = 2026-022U
CENTER_NAME    = EARTH
REF_FRAME      = TEME
TIME_SYSTEM    = UTC
MEAN_ELEMENT_THEORY = SGP/SGP4

EPOCH          = 2026-02-21T02:58:31.632672
MEAN_MOTION    = 15.75268065
ECCENTRICITY   = .0001903
INCLINATION    = 97.2835
RA_OF_ASC_NODE = 85.3205
ARG_OF_PERICENTER = 94.4679
MEAN_ANOMALY   = 265.6803

EPHEMERIS_TYPE = 0
CLASSIFICATION_TYPE = U
NORAD_CAT_ID   = 67666
ELEMENT_SET_NO = 999
REV_AT_EPOCH   = 294
BSTAR          = .10009E-2
MEAN_MOTION_DOT = .152365E-2
MEAN_MOTION_DDOT = 0

